[{"OBJECT_NAME":"GPS BIIR-08","OBJECT_ID":"2003-005A","EPOCH":"2026-03-02T15:51:50.950368","MEAN_MOTION":2.00566327,"ECCENTRICITY":0.01487333,"INCLINATION":54.9077,"RA_OF_ASC_NODE":219.1988,"ARG_OF_PERICENTER":52.7044,"MEAN_ANOMALY":129.581,"EPHEMERIS_TYPE":0,"CLASSIFICATION_TYPE":"U","NORAD_CAT_ID":27663,"ELEMENT_SET_NO":999,"REV_AT_EPOCH":16917,"BSTAR":0,"MEAN_MOTION_DOT":-5.0e-8,"MEAN_MOTION_DDOT":0},{"OBJECT_NAME":"GPS BIIR-11","OBJECT_ID":"2004-009A","EPOCH":"2026-03-02T22:48:43.251840","MEAN_MOTION":2.0055811,"ECCENTRICITY":0.0110897,"INCLINATION":54.9168,"RA_OF_ASC_NODE":279.9786,"ARG_OF_PERICENTER":169.0266,"MEAN_ANOMALY":18.2442,"EPHEMERIS_TYPE":0,"CLASSIFICATION_TYPE":"U","NORAD_CAT_ID":28190,"ELEMENT_SET_NO":999,"REV_AT_EPOCH":16081,"BSTAR":0,"MEAN_MOTION_DOT":-1.0e-7,"MEAN_MOTION_DDOT":0},{"OBJECT_NAME":"GPS BIIR-13","OBJECT_ID":"2004-045A","EPOCH":"2026-03-02T02:12:58.285728","MEAN_MOTION":2.00573214,"ECCENTRICITY":0.0170883,"INCLINATION":55.196,"RA_OF_ASC_NODE":329.2124,"ARG_OF_PERICENTER":312.7311,"MEAN_ANOMALY":38.2097,"EPHEMERIS_TYPE":0,"CLASSIFICATION_TYPE":"U","NORAD_CAT_ID":28474,"ELEMENT_SET_NO":999,"REV_AT_EPOCH":15627,"BSTAR":0,"MEAN_MOTION_DOT":-8.9e-7,"MEAN_MOTION_DDOT":0},{"OBJECT_NAME":"GPS BIIR-14M","OBJECT_ID":"2005-038A","EPOCH":"2026-03-02T08:19:20.265312","MEAN_MOTION":2.00573091,"ECCENTRICITY":0.01288568,"INCLINATION":54.9646,"RA_OF_ASC_NODE":277.4881,"ARG_OF_PERICENTER":295.3112,"MEAN_ANOMALY":199.7188,"EPHEMERIS_TYPE":0,"CLASSIFICATION_TYPE":"U","NORAD_CAT_ID":28874,"ELEMENT_SET_NO":999,"REV_AT_EPOCH":14969,"BSTAR":0,"MEAN_MOTION_DOT":-1.0e-8,"MEAN_MOTION_DDOT":0},{"OBJECT_NAME":"METEOSAT-9 (MSG-2)","OBJECT_ID":"2005-049B","EPOCH":"2026-03-03T02:18:42.620832","MEAN_MOTION":1.00276507,"ECCENTRICITY":0.000187,"INCLINATION":9.122,"RA_OF_ASC_NODE":55.1947,"ARG_OF_PERICENTER":220.2001,"MEAN_ANOMALY":325.8556,"EPHEMERIS_TYPE":0,"CLASSIFICATION_TYPE":"U","NORAD_CAT_ID":28912,"ELEMENT_SET_NO":999,"REV_AT_EPOCH":593,"BSTAR":0,"MEAN_MOTION_DOT":1.13e-6,"MEAN_MOTION_DDOT":0},{"OBJECT_NAME":"GPS BIIR-16M","OBJECT_ID":"2006-052A","EPOCH":"2026-03-02T17:13:52.613184","MEAN_MOTION":2.00551488,"ECCENTRICITY":0.0087895,"INCLINATION":54.9578,"RA_OF_ASC_NODE":218.2238,"ARG_OF_PERICENTER":89.3335,"MEAN_ANOMALY":271.6249,"EPHEMERIS_TYPE":0,"CLASSIFICATION_TYPE":"U","NORAD_CAT_ID":29601,"ELEMENT_SET_NO":999,"REV_AT_EPOCH":14127,"BSTAR":0,"MEAN_MOTION_DOT":-6.0e-8,"MEAN_MOTION_DDOT":0},{"OBJECT_NAME":"GPS BIIR-17M","OBJECT_ID":"2007-047A","EPOCH":"2026-03-03T00:35:48.648768","MEAN_MOTION":2.00560768,"ECCENTRICITY":0.0163592,"INCLINATION":54.0146,"RA_OF_ASC_NODE":84.4404,"ARG_OF_PERICENTER":85.9452,"MEAN_ANOMALY":275.9877,"EPHEMERIS_TYPE":0,"CLASSIFICATION_TYPE":"U","NORAD_CAT_ID":32260,"ELEMENT_SET_NO":999,"REV_AT_EPOCH":13468,"BSTAR":0,"MEAN_MOTION_DOT":7.0e-8,"MEAN_MOTION_DDOT":0},{"OBJECT_NAME":"GPS BIIR-18M","OBJECT_ID":"2007-062A","EPOCH":"2026-03-03T02:06:28.913760","MEAN_MOTION":2.00553422,"ECCENTRICITY":0.0032895,"INCLINATION":55.1158,"RA_OF_ASC_NODE":278.4165,"ARG_OF_PERICENTER":160.6467,"MEAN_ANOMALY":12.9294,"EPHEMERIS_TYPE":0,"CLASSIFICATION_TYPE":"U","NORAD_CAT_ID":32384,"ELEMENT_SET_NO":999,"REV_AT_EPOCH":13338,"BSTAR":0,"MEAN_MOTION_DOT":-9.0e-8,"MEAN_MOTION_DDOT":0},{"OBJECT_NAME":"GOES 14","OBJECT_ID":"2009-033A","EPOCH":"2026-03-03T03:03:30.826368","MEAN_MOTION":1.00123619,"ECCENTRICITY":0.000219,"INCLINATION":1.4156,"RA_OF_ASC_NODE":84.4389,"ARG_OF_PERICENTER":295.8945,"MEAN_ANOMALY":28.9504,"EPHEMERIS_TYPE":0,"CLASSIFICATION_TYPE":"U","NORAD_CAT_ID":35491,"ELEMENT_SET_NO":999,"REV_AT_EPOCH":552,"BSTAR":0,"MEAN_MOTION_DOT":1.14e-6,"MEAN_MOTION_DDOT":0},{"OBJECT_NAME":"GOES 15","OBJECT_ID":"2010-008A","EPOCH":"2026-03-03T02:23:49.630272","MEAN_MOTION":1.00269225,"ECCENTRICITY":0.0001668,"INCLINATION":1.0058,"RA_OF_ASC_NODE":85.1718,"ARG_OF_PERICENTER":23.7748,"MEAN_ANOMALY":151.3712,"EPHEMERIS_TYPE":0,"CLASSIFICATION_TYPE":"U","NORAD_CAT_ID":36411,"ELEMENT_SET_NO":999,"REV_AT_EPOCH":5857,"BSTAR":0,"MEAN_MOTION_DOT":6.0e-8,"MEAN_MOTION_DDOT":0},{"OBJECT_NAME":"GSAT0101 (GALILEO-PFM)","OBJECT_ID":"2011-060A","EPOCH":"2026-02-22T11:08:37.810464","MEAN_MOTION":1.70475478,"ECCENTRICITY":0.00039756,"INCLINATION":57.0318,"RA_OF_ASC_NODE":344.8758,"ARG_OF_PERICENTER":357.0591,"MEAN_ANOMALY":2.9533,"EPHEMERIS_TYPE":0,"CLASSIFICATION_TYPE":"U","NORAD_CAT_ID":37846,"ELEMENT_SET_NO":999,"REV_AT_EPOCH":8916,"BSTAR":0,"MEAN_MOTION_DOT":-8.2e-7,"MEAN_MOTION_DDOT":0},{"OBJECT_NAME":"GSAT0102 (GALILEO-FM2)","OBJECT_ID":"2011-060B","EPOCH":"2026-03-01T01:30:59.316192","MEAN_MOTION":1.70475778,"ECCENTRICITY":0.00054225,"INCLINATION":57.0301,"RA_OF_ASC_NODE":344.6971,"ARG_OF_PERICENTER":341.2092,"MEAN_ANOMALY":154.1953,"EPHEMERIS_TYPE":0,"CLASSIFICATION_TYPE":"U","NORAD_CAT_ID":37847,"ELEMENT_SET_NO":999,"REV_AT_EPOCH":8928,"BSTAR":0,"MEAN_MOTION_DOT":-1.06e-6,"MEAN_MOTION_DDOT":0},{"OBJECT_NAME":"LUCH 5A","OBJECT_ID":"2011-074B","EPOCH":"2026-03-03T06:32:48.286176","MEAN_MOTION":1.00275234,"ECCENTRICITY":0.0004037,"INCLINATION":8.4844,"RA_OF_ASC_NODE":75.3629,"ARG_OF_PERICENTER":243.0845,"MEAN_ANOMALY":107.8689,"EPHEMERIS_TYPE":0,"CLASSIFICATION_TYPE":"U","NORAD_CAT_ID":37951,"ELEMENT_SET_NO":999,"REV_AT_EPOCH":5198,"BSTAR":0,"MEAN_MOTION_DOT":-5.9e-7,"MEAN_MOTION_DDOT":0},{"OBJECT_NAME":"METEOSAT-10 (MSG-3)","OBJECT_ID":"2012-035B","EPOCH":"2026-03-02T17:32:21.806016","MEAN_MOTION":1.00276905,"ECCENTRICITY":0.00024871,"INCLINATION":4.4198,"RA_OF_ASC_NODE":61.47,"ARG_OF_PERICENTER":292.1297,"MEAN_ANOMALY":70.2445,"EPHEMERIS_TYPE":0,"CLASSIFICATION_TYPE":"U","NORAD_CAT_ID":38552,"ELEMENT_SET_NO":999,"REV_AT_EPOCH":4979,"BSTAR":0,"MEAN_MOTION_DOT":-1.9e-7,"MEAN_MOTION_DDOT":0},{"OBJECT_NAME":"SARSAT 13 (METOP-B)","OBJECT_ID":"2012-049A","EPOCH":"2026-03-03T02:38:10.970016","MEAN_MOTION":14.21442069,"ECCENTRICITY":0.000124,"INCLINATION":98.6655,"RA_OF_ASC_NODE":115.657,"ARG_OF_PERICENTER":302.2211,"MEAN_ANOMALY":57.8846,"EPHEMERIS_TYPE":0,"CLASSIFICATION_TYPE":"U","NORAD_CAT_ID":38771,"ELEMENT_SET_NO":999,"REV_AT_EPOCH":69819,"BSTAR":8.1125e-5,"MEAN_MOTION_DOT":1.34e-6,"MEAN_MOTION_DDOT":0},{"OBJECT_NAME":"GPS BIIF-3","OBJECT_ID":"2012-053A","EPOCH":"2026-03-01T15:00:43.413408","MEAN_MOTION":2.00565726,"ECCENTRICITY":0.01769104,"INCLINATION":53.5656,"RA_OF_ASC_NODE":148.0073,"ARG_OF_PERICENTER":64.7623,"MEAN_ANOMALY":297.0865,"EPHEMERIS_TYPE":0,"CLASSIFICATION_TYPE":"U","NORAD_CAT_ID":38833,"ELEMENT_SET_NO":999,"REV_AT_EPOCH":9728,"BSTAR":0,"MEAN_MOTION_DOT":-1.8e-7,"MEAN_MOTION_DDOT":0},{"OBJECT_NAME":"GSAT0103 (GALILEO-FM3)","OBJECT_ID":"2012-055A","EPOCH":"2026-03-02T03:07:45.751296","MEAN_MOTION":1.70473355,"ECCENTRICITY":0.0005349,"INCLINATION":55.7369,"RA_OF_ASC_NODE":104.4827,"ARG_OF_PERICENTER":284.8926,"MEAN_ANOMALY":75.134,"EPHEMERIS_TYPE":0,"CLASSIFICATION_TYPE":"U","NORAD_CAT_ID":38857,"ELEMENT_SET_NO":999,"REV_AT_EPOCH":8318,"BSTAR":0,"MEAN_MOTION_DOT":1.4e-7,"MEAN_MOTION_DDOT":0}]
